{"type": "FeatureCollection", "features": [ {"type": "Feature", "properties": {"norad_id": 30545, "name": "FENGYUN 1C DEB", "group": "fengyun-1c-debris", "lat": 61.27535459533206, "lon": -179.55579799970047, "alt_km": 923.2913948292462, "timestamp": "2025-12-10T18:57:00.342563+00:00", "meta": {"OBJECT_NAME": "FENGYUN 1C DEB", "OBJECT_ID": "1999-025AKK", "EPOCH": "2025-12-09T00:50:52.495584", "MEAN_MOTION": 13.20777712, "ECCENTRICITY": 0.04728186, "INCLINATION": 98.9994, "RA_OF_ASC_NODE": 195.7383, "ARG_OF_PERICENTER": 19.8676, "MEAN_ANOMALY": 342.0194, "EPHEMERIS_TYPE": 0, "CLASSIFICATION_TYPE": "U", "NORAD_CAT_ID": 30545, "ELEMENT_SET_NO": 999, "REV_AT_EPOCH": 90881, "BSTAR": 0.00070951332, "MEAN_MOTION_DOT": 4.84e-06, "MEAN_MOTION_DDOT": 0}, "tle": {"line1": "1 30545U 99025AKK 25343.03532981  .00000484  00000+0  70951-3 0  9990", "line2": "2 30545  98.9994 195.7383 0472818  19.8676 342.0194 13.20777712908816"}}, "geometry": {"type": "Point", "coordinates": [-179.55579799970047, 61.27535459533206]}}, {"type": "Feature", "properties": {"norad_id": 30546, "name": "FENGYUN 1C DEB", "group": "fengyun-1c-debris", "lat": 81.01458275226821, "lon": 103.29487054535933, "alt_km": 585.028240209057, "timestamp": "2025-12-10T18:57:00.342574+00:00", "meta": {"OBJECT_NAME": "FENGYUN 1C DEB", "OBJECT_ID": "1999-025AKL", "EPOCH": "2025-12-09T13:36:26.983008", "MEAN_MOTION": 14.8707169, "ECCENTRICITY": 0.0092528, "INCLINATION": 98.9083, "RA_OF_ASC_NODE": 199.2, "ARG_OF_PERICENTER": 172.5722, "MEAN_ANOMALY": 218.242, "EPHEMERIS_TYPE": 0, "CLASSIFICATION_TYPE": "U", "NORAD_CAT_ID": 30546, "ELEMENT_SET_NO": 999, "REV_AT_EPOCH": 410, "BSTAR": 0.0012913, "MEAN_MOTION_DOT": 0.00012475, "MEAN_MOTION_DDOT": 0}, "tle": {"line1": "1 30546U 99025AKL 25343.56697897  .00012475  00000+0  12913-2 0  9993", "line2": "2 30546  98.9083 199.2000 0092528 172.5722 218.2420 14.87071690  4107"}}, "geometry": {"type": "Point", "coordinates": [103.29487054535933, 81.01458275226821]}}, {"type": "Feature", "properties": {"norad_id": 30547, "name": "FENGYUN 1C DEB", "group": "fengyun-1c-debris", "lat": 28.229089791677463, "lon": 12.543627353283604, "alt_km": 743.0144863778769, "timestamp": "2025-12-10T18:57:00.342584+00:00", "meta": {"OBJECT_NAME": "FENGYUN 1C DEB", "OBJECT_ID": "1999-025AKM", "EPOCH": "2025-12-10T07:22:52.673376", "MEAN_MOTION": 14.37743834, "ECCENTRICITY": 0.0095099, "INCLINATION": 98.9023, "RA_OF_ASC_NODE": 187.2177, "ARG_OF_PERICENTER": 224.6554, "MEAN_ANOMALY": 314.149, "EPHEMERIS_TYPE": 0, "CLASSIFICATION_TYPE": "U", "NORAD_CAT_ID": 30547, "ELEMENT_SET_NO": 999, "REV_AT_EPOCH": 98687, "BSTAR": 0.00045553, "MEAN_MOTION_DOT": 1.395e-05, "MEAN_MOTION_DDOT": 0}, "tle": {"line1": "1 30547U 99025AKM 25344.30755409  .00001395  00000+0  45553-3 0  9997", "line2": "2 30547  98.9023 187.2177 0095099 224.6554 314.1490 14.37743834986879"}}, "geometry": {"type": "Point", "coordinates": [12.543627353283604, 28.229089791677463]}}, {"type": "Feature", "properties": {"norad_id": 30548, "name": "FENGYUN 1C DEB", "group": "fengyun-1c-debris", "lat": 54.45150550348755, "lon": 75.86719795630553, "alt_km": 836.5629013315047, "timestamp": "2025-12-10T18:57:00.342594+00:00", "meta": {"OBJECT_NAME": "FENGYUN 1C DEB", "OBJECT_ID": "1999-025AKN", "EPOCH": "2025-12-10T12:13:24.269088", "MEAN_MOTION": 14.26844945, "ECCENTRICITY": 0.0068757, "INCLINATION": 99.6812, "RA_OF_ASC_NODE": 241.7363, "ARG_OF_PERICENTER": 341.7334, "MEAN_ANOMALY": 143.2043, "EPHEMERIS_TYPE": 0, "CLASSIFICATION_TYPE": "U", "NORAD_CAT_ID": 30548, "ELEMENT_SET_NO": 999, "REV_AT_EPOCH": 14063, "BSTAR": 0.0032491, "MEAN_MOTION_DOT": 8.037e-05, "MEAN_MOTION_DDOT": 0}, "tle": {"line1": "1 30548U 99025AKN 25344.50930867  .00008037  00000+0  32491-2 0  9999", "line2": "2 30548  99.6812 241.7363 0068757 341.7334 143.2043 14.26844945140639"}}, "geometry": {"type": "Point", "coordinates": [75.86719795630553, 54.45150550348755]}}, {"type": "Feature", "properties": {"norad_id": 30549, "name": "FENGYUN 1C DEB", "group": "fengyun-1c-debris", "lat": 31.492287964422648, "lon": -69.38691489475175, "alt_km": 978.4172449608577, "timestamp": "2025-12-10T18:57:00.342604+00:00", "meta": {"OBJECT_NAME": "FENGYUN 1C DEB", "OBJECT_ID": "1999-025AKP", "EPOCH": "2025-12-03T07:39:14.923872", "MEAN_MOTION": 13.98584639, "ECCENTRICITY": 0.0288262, "INCLINATION": 98.4796, "RA_OF_ASC_NODE": 98.4482, "ARG_OF_PERICENTER": 283.4344, "MEAN_ANOMALY": 73.4847, "EPHEMERIS_TYPE": 0, "CLASSIFICATION_TYPE": "U", "NORAD_CAT_ID": 30549, "ELEMENT_SET_NO": 999, "REV_AT_EPOCH": 95162, "BSTAR": 0.0024216, "MEAN_MOTION_DOT": 4.917e-05, "MEAN_MOTION_DDOT": 0}, "tle": {"line1": "1 30549U 99025AKP 25337.31892273  .00004917  00000+0  24216-2 0  9998", "line2": "2 30549  98.4796  98.4482 0288262 283.4344  73.4847 13.98584639951629"}}, "geometry": {"type": "Point", "coordinates": [-69.38691489475175, 31.492287964422648]}}, {"type": "Feature", "properties": {"norad_id": 30550, "name": "FENGYUN 1C DEB", "group": "fengyun-1c-debris", "lat": -73.19318003232515, "lon": -88.04465226533581, "alt_km": 800.9728457555348, "timestamp": "2025-12-10T18:57:00.342615+00:00", "meta": {"OBJECT_NAME": "FENGYUN 1C DEB", "OBJECT_ID": "1999-025AKQ", "EPOCH": "2025-12-09T11:38:59.399808", "MEAN_MOTION": 14.02348674, "ECCENTRICITY": 0.01331679, "INCLINATION": 99.0528, "RA_OF_ASC_NODE": 238.8009, "ARG_OF_PERICENTER": 306.2736, "MEAN_ANOMALY": 237.9374, "EPHEMERIS_TYPE": 0, "CLASSIFICATION_TYPE": "U", "NORAD_CAT_ID": 30550, "ELEMENT_SET_NO": 999, "REV_AT_EPOCH": 95349, "BSTAR": 0.0044165795, "MEAN_MOTION_DOT": 7.287e-05, "MEAN_MOTION_DDOT": 0}, "tle": {"line1": "1 30550U 99025AKQ 25343.48540972  .00007287  00000+0  44166-2 0  9990", "line2": "2 30550  99.0528 238.8009 0133167 306.2736 237.9374 14.02348674953490"}}, "geometry": {"type": "Point", "coordinates": [-88.04465226533581, -73.19318003232515]}}, {"type": "Feature", "properties": {"norad_id": 30552, "name": "FENGYUN 1C DEB", "group": "fengyun-1c-debris", "lat": -70.96798493277403, "lon": 143.14834840834692, "alt_km": 708.7158983292029, "timestamp": "2025-12-10T18:57:00.342625+00:00", "meta": {"OBJECT_NAME": "FENGYUN 1C DEB", "OBJECT_ID": "1999-025AKS", "EPOCH": "2025-12-10T07:43:46.270848", "MEAN_MOTION": 14.54662223, "ECCENTRICITY": 0.0014549, "INCLINATION": 98.8352, "RA_OF_ASC_NODE": 115.8532, "ARG_OF_PERICENTER": 258.3853, "MEAN_ANOMALY": 101.5709, "EPHEMERIS_TYPE": 0, "CLASSIFICATION_TYPE": "U", "NORAD_CAT_ID": 30552, "ELEMENT_SET_NO": 999, "REV_AT_EPOCH": 97617, "BSTAR": 0.0052829, "MEAN_MOTION_DOT": 0.00022641, "MEAN_MOTION_DDOT": 0}, "tle": {"line1": "1 30552U 99025AKS 25344.32206332  .00022641  00000+0  52829-2 0  9991", "line2": "2 30552  98.8352 115.8532 0014549 258.3853 101.5709 14.54662223976172"}}, "geometry": {"type": "Point", "coordinates": [143.14834840834692, -70.96798493277403]}}, {"type": "Feature", "properties": {"norad_id": 30553, "name": "FENGYUN 1C DEB", "group": "fengyun-1c-debris", "lat": -40.40634852130182, "lon": -108.42442332828014, "alt_km": 654.3180908527511, "timestamp": "2025-12-10T18:57:00.342652+00:00", "meta": {"OBJECT_NAME": "FENGYUN 1C DEB", "OBJECT_ID": "1999-025AKT", "EPOCH": "2025-12-10T04:54:02.868768", "MEAN_MOTION": 14.72093691, "ECCENTRICITY": 0.00211241, "INCLINATION": 99.1286, "RA_OF_ASC_NODE": 78.7863, "ARG_OF_PERICENTER": 158.4181, "MEAN_ANOMALY": 201.7918, "EPHEMERIS_TYPE": 0, "CLASSIFICATION_TYPE": "U", "NORAD_CAT_ID": 30553, "ELEMENT_SET_NO": 999, "REV_AT_EPOCH": 98436, "BSTAR": 0.0050523555, "MEAN_MOTION_DOT": 0.00031977, "MEAN_MOTION_DDOT": 0}, "tle": {"line1": "1 30553U 99025AKT 25344.20419987  .00031977  00000+0  50524-2 0  9993", "line2": "2 30553  99.1286  78.7863 0021124 158.4181 201.7918 14.72093691984360"}}, "geometry": {"type": "Point", "coordinates": [-108.42442332828014, -40.40634852130182]}}, {"type": "Feature", "properties": {"norad_id": 30555, "name": "FENGYUN 1C DEB", "group": "fengyun-1c-debris", "lat": 8.48299235622596, "lon": 37.01638509810363, "alt_km": 825.108799019461, "timestamp": "2025-12-10T18:57:00.342671+00:00", "meta": {"OBJECT_NAME": "FENGYUN 1C DEB", "OBJECT_ID": "1999-025AKV", "EPOCH": "2025-12-10T02:17:06.074880", "MEAN_MOTION": 14.20781778, "ECCENTRICITY": 0.0042377, "INCLINATION": 98.7569, "RA_OF_ASC_NODE": 37.6458, "ARG_OF_PERICENTER": 279.19, "MEAN_ANOMALY": 139.401, "EPHEMERIS_TYPE": 0, "CLASSIFICATION_TYPE": "U", "NORAD_CAT_ID": 30555, "ELEMENT_SET_NO": 999, "REV_AT_EPOCH": 96898, "BSTAR": 0.0018319877, "MEAN_MOTION_DOT": 3.948e-05, "MEAN_MOTION_DDOT": 0}, "tle": {"line1": "1 30555U 99025AKV 25344.09520920  .00003948  00000+0  18320-2 0  9997", "line2": "2 30555  98.7569  37.6458 0042377 279.1900 139.4010 14.20781778968981"}}, "geometry": {"type": "Point", "coordinates": [37.01638509810363, 8.48299235622596]}}, {"type": "Feature", "properties": {"norad_id": 30556, "name": "FENGYUN 1C DEB", "group": "fengyun-1c-debris", "lat": -67.31781183551895, "lon": -0.1749088898816047, "alt_km": 863.0943079462568, "timestamp": "2025-12-10T18:57:00.342682+00:00", "meta": {"OBJECT_NAME": "FENGYUN 1C DEB", "OBJECT_ID": "1999-025AKW", "EPOCH": "2025-12-10T11:26:20.844096", "MEAN_MOTION": 14.01364198, "ECCENTRICITY": 0.0067877, "INCLINATION": 98.7816, "RA_OF_ASC_NODE": 337.8177, "ARG_OF_PERICENTER": 243.9108, "MEAN_ANOMALY": 268.5843, "EPHEMERIS_TYPE": 0, "CLASSIFICATION_TYPE": "U", "NORAD_CAT_ID": 30556, "ELEMENT_SET_NO": 999, "REV_AT_EPOCH": 96225, "BSTAR": 0.00040357, "MEAN_MOTION_DOT": 5.78e-06, "MEAN_MOTION_DDOT": 0}, "tle": {"line1": "1 30556U 99025AKW 25344.47663014  .00000578  00000+0  40357-3 0  9994", "line2": "2 30556  98.7816 337.8177 0067877 243.9108 268.5843 14.01364198962255"}}, "geometry": {"type": "Point", "coordinates": [-0.1749088898816047, -67.31781183551895]}}]}